[{"OBJECT_NAME":"STARLINK-35797","OBJECT_ID":"2025-254S","EPOCH":"2026-03-09T18:16:18.375456","MEAN_MOTION":15.30198099,"ECCENTRICITY":0.00012036,"INCLINATION":53.159,"RA_OF_ASC_NODE":232.3333,"ARG_OF_PERICENTER":68.2693,"MEAN_ANOMALY":291.8436,"EPHEMERIS_TYPE":0,"CLASSIFICATION_TYPE":"U","NORAD_CAT_ID":66364,"ELEMENT_SET_NO":999,"REV_AT_EPOCH":1898,"BSTAR":0.0012161336,"MEAN_MOTION_DOT":0.00035831,"MEAN_MOTION_DDOT":0},{"OBJECT_NAME":"OBJECT D","OBJECT_ID":"2021-102D","EPOCH":"2026-03-09T14:47:14.426880","MEAN_MOTION":15.2846442,"ECCENTRICITY":0.0009157,"INCLINATION":97.3342,"RA_OF_ASC_NODE":112.2633,"ARG_OF_PERICENTER":187.6206,"MEAN_ANOMALY":172.4897,"EPHEMERIS_TYPE":0,"CLASSIFICATION_TYPE":"U","NORAD_CAT_ID":49398,"ELEMENT_SET_NO":999,"REV_AT_EPOCH":23880,"BSTAR":0.00046011,"MEAN_MOTION_DOT":0.00012697,"MEAN_MOTION_DDOT":0}]
